[{"OBJECT_NAME":"STARLINK-3861","OBJECT_ID":"2022-049BE","EPOCH":"2026-03-09T07:26:12.999552","MEAN_MOTION":15.08837336,"ECCENTRICITY":0.00013843,"INCLINATION":53.2187,"RA_OF_ASC_NODE":40.711,"ARG_OF_PERICENTER":89.9727,"MEAN_ANOMALY":270.1424,"EPHEMERIS_TYPE":0,"CLASSIFICATION_TYPE":"U","NORAD_CAT_ID":52503,"ELEMENT_SET_NO":999,"REV_AT_EPOCH":21247,"BSTAR":-2.850001e-5,"MEAN_MOTION_DOT":-7.41e-6,"MEAN_MOTION_DDOT":0},{"OBJECT_NAME":"NANOFF B","OBJECT_ID":"2023-185S","EPOCH":"2026-03-09T23:34:31.291104","MEAN_MOTION":15.11549361,"ECCENTRICITY":0.00109129,"INCLINATION":97.5361,"RA_OF_ASC_NODE":137.8575,"ARG_OF_PERICENTER":288.4201,"MEAN_ANOMALY":71.5842,"EPHEMERIS_TYPE":0,"CLASSIFICATION_TYPE":"U","NORAD_CAT_ID":58755,"ELEMENT_SET_NO":999,"REV_AT_EPOCH":11888,"BSTAR":0.00028764283,"MEAN_MOTION_DOT":4.819e-5,"MEAN_MOTION_DDOT":0}]
